[{"OBJECT_NAME":"STARLINK-6223","OBJECT_ID":"2023-088K","EPOCH":"2026-03-08T12:14:36.696480","MEAN_MOTION":15.02538628,"ECCENTRICITY":0.00012545,"INCLINATION":43.0026,"RA_OF_ASC_NODE":113.7455,"ARG_OF_PERICENTER":268.1992,"MEAN_ANOMALY":91.8707,"EPHEMERIS_TYPE":0,"CLASSIFICATION_TYPE":"U","NORAD_CAT_ID":57057,"ELEMENT_SET_NO":999,"REV_AT_EPOCH":15019,"BSTAR":1.7020194e-5,"MEAN_MOTION_DOT":2.6e-7,"MEAN_MOTION_DDOT":0},{"OBJECT_NAME":"NOAA 16 DEB","OBJECT_ID":"2000-055LF","EPOCH":"2026-03-09T22:09:26.280576","MEAN_MOTION":15.03400913,"ECCENTRICITY":0.0013479,"INCLINATION":98.8787,"RA_OF_ASC_NODE":242.3075,"ARG_OF_PERICENTER":293.6263,"MEAN_ANOMALY":66.3543,"EPHEMERIS_TYPE":0,"CLASSIFICATION_TYPE":"U","NORAD_CAT_ID":41426,"ELEMENT_SET_NO":999,"REV_AT_EPOCH":52286,"BSTAR":0.010804821,"MEAN_MOTION_DOT":0.00150198,"MEAN_MOTION_DDOT":0}]
